CCSDS_OMM_VERS = 2.0
CREATION_DATE  = 
ORIGINATOR     = 

OBJECT_NAME    = SL-14 R/B
OBJECT_ID      = 1991-042B
CENTER_NAME    = EARTH
REF_FRAME      = TEME
TIME_SYSTEM    = UTC
MEAN_ELEMENT_THEORY = SGP/SGP4

EPOCH          = 2025-12-09T14:35:39.101280
MEAN_MOTION    = 14.81734586
ECCENTRICITY   = .00171612
INCLINATION    = 82.4923
RA_OF_ASC_NODE = 304.6597
ARG_OF_PERICENTER = 171.8472
MEAN_ANOMALY   = 188.3024

EPHEMERIS_TYPE = 0
CLASSIFICATION_TYPE = U
NORAD_CAT_ID   = 21423
ELEMENT_SET_NO = 999
REV_AT_EPOCH   = 83973
BSTAR          = .10012386E-3
MEAN_MOTION_DOT = .814E-5
MEAN_MOTION_DDOT = 0

CCSDS_OMM_VERS = 2.0
CREATION_DATE  = 
ORIGINATOR     = 

OBJECT_NAME    = ERS-1
OBJECT_ID      = 1991-050A
CENTER_NAME    = EARTH
REF_FRAME      = TEME
TIME_SYSTEM    = UTC
MEAN_ELEMENT_THEORY = SGP/SGP4

EPOCH          = 2025-12-09T11:16:23.156544
MEAN_MOTION    = 14.39360896
ECCENTRICITY   = .00329572
INCLINATION    = 98.7905
RA_OF_ASC_NODE = 354.4427
ARG_OF_PERICENTER = 109.4272
MEAN_ANOMALY   = 251.0481

EPHEMERIS_TYPE = 0
CLASSIFICATION_TYPE = U
NORAD_CAT_ID   = 21574
ELEMENT_SET_NO = 999
REV_AT_EPOCH   = 80275
BSTAR          = .2050293E-3
MEAN_MOTION_DOT = .595E-5
MEAN_MOTION_DDOT = 0

CCSDS_OMM_VERS = 2.0
CREATION_DATE  = 
ORIGINATOR     = 

OBJECT_NAME    = ARIANE 40 R/B
OBJECT_ID      = 1991-050F
CENTER_NAME    = EARTH
REF_FRAME      = TEME
TIME_SYSTEM    = UTC
MEAN_ELEMENT_THEORY = SGP/SGP4

EPOCH          = 2025-12-09T09:19:14.133792
MEAN_MOTION    = 14.42809610
ECCENTRICITY   = .00029924
INCLINATION    = 98.2168
RA_OF_ASC_NODE = 33.9397
ARG_OF_PERICENTER = 11.0822
MEAN_ANOMALY   = 349.0434

EPHEMERIS_TYPE = 0
CLASSIFICATION_TYPE = U
NORAD_CAT_ID   = 21610
ELEMENT_SET_NO = 999
REV_AT_EPOCH   = 80597
BSTAR          = .22131822E-3
MEAN_MOTION_DOT = .696E-5
MEAN_MOTION_DDOT = 0

CCSDS_OMM_VERS = 2.0
CREATION_DATE  = 
ORIGINATOR     = 

OBJECT_NAME    = INTERCOSMOS 25
OBJECT_ID      = 1991-086A
CENTER_NAME    = EARTH
REF_FRAME      = TEME
TIME_SYSTEM    = UTC
MEAN_ELEMENT_THEORY = SGP/SGP4

EPOCH          = 2025-12-09T11:57:14.230368
MEAN_MOTION    = 12.11712345
ECCENTRICITY   = .14868296
INCLINATION    = 82.6073
RA_OF_ASC_NODE = 4.5358
ARG_OF_PERICENTER = 311.3852
MEAN_ANOMALY   = 36.8330

EPHEMERIS_TYPE = 0
CLASSIFICATION_TYPE = U
NORAD_CAT_ID   = 21819
ELEMENT_SET_NO = 999
REV_AT_EPOCH   = 48576
BSTAR          = .49486875E-3
MEAN_MOTION_DOT = .2492E-4
MEAN_MOTION_DDOT = 0

CCSDS_OMM_VERS = 2.0
CREATION_DATE  = 
ORIGINATOR     = 

OBJECT_NAME    = SL-8 R/B
OBJECT_ID      = 1992-008B
CENTER_NAME    = EARTH
REF_FRAME      = TEME
TIME_SYSTEM    = UTC
MEAN_ELEMENT_THEORY = SGP/SGP4

EPOCH          = 2025-12-09T11:45:12.648672
MEAN_MOTION    = 13.75957947
ECCENTRICITY   = .00353817
INCLINATION    = 82.9263
RA_OF_ASC_NODE = 334.8640
ARG_OF_PERICENTER = 28.7168
MEAN_ANOMALY   = 81.7589

EPHEMERIS_TYPE = 0
CLASSIFICATION_TYPE = U
NORAD_CAT_ID   = 21876
ELEMENT_SET_NO = 999
REV_AT_EPOCH   = 69701
BSTAR          = .16988239E-3
MEAN_MOTION_DOT = .181E-5
MEAN_MOTION_DDOT = 0

CCSDS_OMM_VERS = 2.0
CREATION_DATE  = 
ORIGINATOR     = 

OBJECT_NAME    = SL-8 R/B
OBJECT_ID      = 1992-020B
CENTER_NAME    = EARTH
REF_FRAME      = TEME
TIME_SYSTEM    = UTC
MEAN_ELEMENT_THEORY = SGP/SGP4

EPOCH          = 2025-12-09T10:40:29.867232
MEAN_MOTION    = 13.75526266
ECCENTRICITY   = .00286786
INCLINATION    = 82.9310
RA_OF_ASC_NODE = 220.7642
ARG_OF_PERICENTER = 187.4440
MEAN_ANOMALY   = 345.5330

EPHEMERIS_TYPE = 0
CLASSIFICATION_TYPE = U
NORAD_CAT_ID   = 21938
ELEMENT_SET_NO = 999
REV_AT_EPOCH   = 68872
BSTAR          = .12699334E-3
MEAN_MOTION_DOT = .138E-5
MEAN_MOTION_DDOT = 0

CCSDS_OMM_VERS = 2.0
CREATION_DATE  = 
ORIGINATOR     = 

OBJECT_NAME    = USA 81
OBJECT_ID      = 1992-023A
CENTER_NAME    = EARTH
REF_FRAME      = TEME
TIME_SYSTEM    = UTC
MEAN_ELEMENT_THEORY = SGP/SGP4

EPOCH          = 2025-12-09T11:18:30.409056
MEAN_MOTION    = 14.32325259
ECCENTRICITY   = .00015442
INCLINATION    = 85.0083
RA_OF_ASC_NODE = 183.4614
ARG_OF_PERICENTER = 63.2380
MEAN_ANOMALY   = 296.8971

EPHEMERIS_TYPE = 0
CLASSIFICATION_TYPE = U
NORAD_CAT_ID   = 21949
ELEMENT_SET_NO = 999
REV_AT_EPOCH   = 8187
BSTAR          = .10817429E-3
MEAN_MOTION_DOT = .312E-5
MEAN_MOTION_DDOT = 0

CCSDS_OMM_VERS = 2.0
CREATION_DATE  = 
ORIGINATOR     = 

OBJECT_NAME    = COSMOS 2219
OBJECT_ID      = 1992-076A
CENTER_NAME    = EARTH
REF_FRAME      = TEME
TIME_SYSTEM    = UTC
MEAN_ELEMENT_THEORY = SGP/SGP4

EPOCH          = 2025-12-09T07:53:56.729184
MEAN_MOTION    = 14.14062715
ECCENTRICITY   = .0019032
INCLINATION    = 71.0587
RA_OF_ASC_NODE = 206.9626
ARG_OF_PERICENTER = 331.4362
MEAN_ANOMALY   = 28.5716

EPHEMERIS_TYPE = 0
CLASSIFICATION_TYPE = U
NORAD_CAT_ID   = 22219
ELEMENT_SET_NO = 999
REV_AT_EPOCH   = 70560
BSTAR          = -.27460852E-4
MEAN_MOTION_DOT = -.1E-5
MEAN_MOTION_DDOT = 0

CCSDS_OMM_VERS = 2.0
CREATION_DATE  = 
ORIGINATOR     = 

OBJECT_NAME    = SL-16 R/B
OBJECT_ID      = 1992-076B
CENTER_NAME    = EARTH
REF_FRAME      = TEME
TIME_SYSTEM    = UTC
MEAN_ELEMENT_THEORY = SGP/SGP4

EPOCH          = 2025-12-09T11:27:40.175712
MEAN_MOTION    = 14.16841244
ECCENTRICITY   = .00149177
INCLINATION    = 71.0010
RA_OF_ASC_NODE = 18.4042
ARG_OF_PERICENTER = 238.6090
MEAN_ANOMALY   = 223.2978

EPHEMERIS_TYPE = 0
CLASSIFICATION_TYPE = U
NORAD_CAT_ID   = 22220
ELEMENT_SET_NO = 999
REV_AT_EPOCH   = 70905
BSTAR          = -.45444379E-4
MEAN_MOTION_DOT = -.139E-5
MEAN_MOTION_DDOT = 0

CCSDS_OMM_VERS = 2.0
CREATION_DATE  = 
ORIGINATOR     = 

OBJECT_NAME    = COSMOS 2221
OBJECT_ID      = 1992-080A
CENTER_NAME    = EARTH
REF_FRAME      = TEME
TIME_SYSTEM    = UTC
MEAN_ELEMENT_THEORY = SGP/SGP4

EPOCH          = 2025-12-09T11:21:04.086144
MEAN_MOTION    = 14.95741864
ECCENTRICITY   = .00158407
INCLINATION    = 82.5044
RA_OF_ASC_NODE = 5.4520
ARG_OF_PERICENTER = 131.6783
MEAN_ANOMALY   = 228.5797

EPHEMERIS_TYPE = 0
CLASSIFICATION_TYPE = U
NORAD_CAT_ID   = 22236
ELEMENT_SET_NO = 999
REV_AT_EPOCH   = 76730
BSTAR          = .29984179E-3
MEAN_MOTION_DOT = .3373E-4
MEAN_MOTION_DDOT = 0

CCSDS_OMM_VERS = 2.0
CREATION_DATE  = 
ORIGINATOR     = 

OBJECT_NAME    = SL-16 R/B
OBJECT_ID      = 1992-093B
CENTER_NAME    = EARTH
REF_FRAME      = TEME
TIME_SYSTEM    = UTC
MEAN_ELEMENT_THEORY = SGP/SGP4

EPOCH          = 2025-12-09T06:44:56.423040
MEAN_MOTION    = 14.15427072
ECCENTRICITY   = .0002086
INCLINATION    = 71.0202
RA_OF_ASC_NODE = 194.0560
ARG_OF_PERICENTER = 82.2848
MEAN_ANOMALY   = 277.8511

EPHEMERIS_TYPE = 0
CLASSIFICATION_TYPE = U
NORAD_CAT_ID   = 22285
ELEMENT_SET_NO = 999
REV_AT_EPOCH   = 70036
BSTAR          = .13896E-3
MEAN_MOTION_DOT = .224E-5
MEAN_MOTION_DDOT = 0

CCSDS_OMM_VERS = 2.0
CREATION_DATE  = 
ORIGINATOR     = 

OBJECT_NAME    = COSMOS 2228
OBJECT_ID      = 1992-094A
CENTER_NAME    = EARTH
REF_FRAME      = TEME
TIME_SYSTEM    = UTC
MEAN_ELEMENT_THEORY = SGP/SGP4

EPOCH          = 2025-12-09T14:45:35.237952
MEAN_MOTION    = 14.96706314
ECCENTRICITY   = .00163587
INCLINATION    = 82.5179
RA_OF_ASC_NODE = 323.5241
ARG_OF_PERICENTER = 242.8435
MEAN_ANOMALY   = 117.1120

EPHEMERIS_TYPE = 0
CLASSIFICATION_TYPE = U
NORAD_CAT_ID   = 22286
ELEMENT_SET_NO = 999
REV_AT_EPOCH   = 76258
BSTAR          = .34100545E-3
MEAN_MOTION_DOT = .3928E-4
MEAN_MOTION_DDOT = 0

