SL-14 R/B               
1 21423U 91042B   25343.60809145  .00000814  00000+0  10012-3 0  9997
2 21423  82.4923 304.6597 0017161 171.8472 188.3024 14.81734586839735
ERS-1                   
1 21574U 91050A   25343.46971246  .00000595  00000+0  20503-3 0  9991
2 21574  98.7905 354.4427 0032957 109.4272 251.0481 14.39360896802751
ARIANE 40 R/B           
1 21610U 91050F   25343.38835803  .00000696  00000+0  22132-3 0  9993
2 21610  98.2168  33.9397 0002992  11.0822 349.0434 14.42809610805977
INTERCOSMOS 25          
1 21819U 91086A   25343.49808137  .00002492  00000+0  49487-3 0  9993
2 21819  82.6073   4.5358 1486829 311.3852  36.8330 12.11712345485765
SL-8 R/B                
1 21876U 92008B   25343.48972973  .00000181  00000+0  16988-3 0  9993
2 21876  82.9263 334.8640 0035381  28.7168  81.7589 13.75957947697014
SL-8 R/B                
1 21938U 92020B   25343.44479013  .00000138  00000+0  12699-3 0  9996
2 21938  82.9310 220.7642 0028678 187.4440 345.5330 13.75526266688727
USA 81                  
1 21949U 92023A   25343.47118529  .00000312  00000+0  10817-3 0  9990
2 21949  85.0083 183.4614 0001544  63.2380 296.8971 14.32325259 81876
COSMOS 2219             
1 22219U 92076A   25343.32912881 -.00000100  00000+0 -27461-4 0  9997
2 22219  71.0587 206.9626 0019032 331.4362  28.5716 14.14062715705602
SL-16 R/B               
1 22220U 92076B   25343.47754833 -.00000139  00000+0 -45444-4 0  9999
2 22220  71.0010  18.4042 0014917 238.6090 223.2978 14.16841244709057
COSMOS 2221             
1 22236U 92080A   25343.47296396  .00003373  00000+0  29984-3 0  9997
2 22236  82.5044   5.4520 0015840 131.6783 228.5797 14.95741864767305
SL-16 R/B               
1 22285U 92093B   25343.28120860  .00000224  00000+0  13896-3 0  9993
2 22285  71.0202 194.0560 0002086  82.2848 277.8511 14.15427072700366
COSMOS 2228             
1 22286U 92094A   25343.61499118  .00003928  00000+0  34101-3 0  9993
2 22286  82.5179 323.5241 0016358 242.8435 117.1120 14.96706314762587
